STARLINK-31999          
1 60101U 24117L   26068.30351011  .00000952  00000+0  44260-4 0  9994
2 60101  53.1615  39.1798 0001313  95.3004 264.8147 15.30197018 96829
YAOGAN-43 01D           
1 60461U 24148D   26068.43560480  .00010676  00000+0  37766-3 0  9999
2 60461  35.0010  61.7102 0002556 326.2473  33.8080 15.28369377 87008
